{"type": "FeatureCollection", "features": [ {"type": "Feature", "properties": {"norad_id": 41335, "name": "SENTINEL-3A", "group": "resource", "lat": -63.27743332102006, "lon": 67.47808921904215, "alt_km": 810.4292497099977, "timestamp": "2025-12-10T21:43:21.743846+00:00", "meta": {"OBJECT_NAME": "SENTINEL-3A", "OBJECT_ID": "2016-011A", "EPOCH": "2025-12-10T15:17:33.639360", "MEAN_MOTION": 14.2674539, "ECCENTRICITY": 9.509e-05, "INCLINATION": 98.621, "RA_OF_ASC_NODE": 49.676, "ARG_OF_PERICENTER": 93.7354, "MEAN_ANOMALY": 266.3936, "EPHEMERIS_TYPE": 0, "CLASSIFICATION_TYPE": "U", "NORAD_CAT_ID": 41335, "ELEMENT_SET_NO": 999, "REV_AT_EPOCH": 51117, "BSTAR": 0.00011289376, "MEAN_MOTION_DOT": 2.3e-06, "MEAN_MOTION_DDOT": 0}, "tle": {"line1": "1 41335U 16011A   25344.63719490  .00000230  00000+0  11289-3 0  9990", "line2": "2 41335  98.6210  49.6760 0000950  93.7354 266.3936 14.26745390511172"}}, "geometry": {"type": "Point", "coordinates": [67.47808921904215, -63.27743332102006]}}, {"type": "Feature", "properties": {"norad_id": 41556, "name": "ZIYUAN 3-2 (ZY 3-2)", "group": "resource", "lat": 37.294232237175244, "lon": -115.21385025422411, "alt_km": 502.2925715712554, "timestamp": "2025-12-10T21:43:21.743857+00:00", "meta": {"OBJECT_NAME": "ZIYUAN 3-2 (ZY 3-2)", "OBJECT_ID": "2016-033A", "EPOCH": "2025-12-10T14:47:04.539264", "MEAN_MOTION": 15.21452142, "ECCENTRICITY": 0.00124233, "INCLINATION": 97.4041, "RA_OF_ASC_NODE": 58.8177, "ARG_OF_PERICENTER": 257.2424, "MEAN_ANOMALY": 102.7424, "EPHEMERIS_TYPE": 0, "CLASSIFICATION_TYPE": "U", "NORAD_CAT_ID": 41556, "ELEMENT_SET_NO": 999, "REV_AT_EPOCH": 52931, "BSTAR": 0.00050740134, "MEAN_MOTION_DOT": 0.00011363, "MEAN_MOTION_DDOT": 0}, "tle": {"line1": "1 41556U 16033A   25344.61602476  .00011363  00000+0  50740-3 0  9996", "line2": "2 41556  97.4041  58.8177 0012423 257.2424 102.7424 15.21452142529319"}}, "geometry": {"type": "Point", "coordinates": [-115.21385025422411, 37.294232237175244]}}, {"type": "Feature", "properties": {"norad_id": 41599, "name": "CARTOSAT-2C", "group": "resource", "lat": 76.80577345320776, "lon": -103.75973727000576, "alt_km": 494.3130264477895, "timestamp": "2025-12-10T21:43:21.743867+00:00", "meta": {"OBJECT_NAME": "CARTOSAT-2C", "OBJECT_ID": "2016-040A", "EPOCH": "2025-12-10T14:57:29.691648", "MEAN_MOTION": 15.19266011, "ECCENTRICITY": 0.00109603, "INCLINATION": 97.4763, "RA_OF_ASC_NODE": 41.8949, "ARG_OF_PERICENTER": 71.3243, "MEAN_ANOMALY": 288.918, "EPHEMERIS_TYPE": 0, "CLASSIFICATION_TYPE": "U", "NORAD_CAT_ID": 41599, "ELEMENT_SET_NO": 999, "REV_AT_EPOCH": 52508, "BSTAR": 0.00049124587, "MEAN_MOTION_DOT": 0.00010312, "MEAN_MOTION_DDOT": 0}, "tle": {"line1": "1 41599U 16040A   25344.62326032  .00010312  00000+0  49125-3 0  9991", "line2": "2 41599  97.4763  41.8949 0010960  71.3243 288.9180 15.19266011525085"}}, "geometry": {"type": "Point", "coordinates": [-103.75973727000576, 76.80577345320776]}}, {"type": "Feature", "properties": {"norad_id": 41601, "name": "SKYSAT-C1", "group": "resource", "lat": 67.39282083464809, "lon": 4.9047696552866284, "alt_km": 460.5059018121301, "timestamp": "2025-12-10T21:43:21.743878+00:00", "meta": {"OBJECT_NAME": "SKYSAT-C1", "OBJECT_ID": "2016-040C", "EPOCH": "2025-12-10T01:03:12.196224", "MEAN_MOTION": 15.32510525, "ECCENTRICITY": 0.00026802, "INCLINATION": 96.9824, "RA_OF_ASC_NODE": 21.2092, "ARG_OF_PERICENTER": 23.5908, "MEAN_ANOMALY": 336.5457, "EPHEMERIS_TYPE": 0, "CLASSIFICATION_TYPE": "U", "NORAD_CAT_ID": 41601, "ELEMENT_SET_NO": 999, "REV_AT_EPOCH": 52886, "BSTAR": 0.00041563234, "MEAN_MOTION_DOT": 0.00012984, "MEAN_MOTION_DDOT": 0}, "tle": {"line1": "1 41601U 16040C   25344.04389116  .00012984  00000+0  41563-3 0  9998", "line2": "2 41601  96.9824  21.2092 0002680  23.5908 336.5457 15.32510525528862"}}, "geometry": {"type": "Point", "coordinates": [4.9047696552866284, 67.39282083464809]}}, {"type": "Feature", "properties": {"norad_id": 41603, "name": "LAPAN-A3", "group": "resource", "lat": -38.59306025406486, "lon": 156.7835829865136, "alt_km": 481.3984996853678, "timestamp": "2025-12-10T21:43:21.743889+00:00", "meta": {"OBJECT_NAME": "LAPAN-A3", "OBJECT_ID": "2016-040E", "EPOCH": "2025-12-10T14:29:49.498368", "MEAN_MOTION": 15.31523446, "ECCENTRICITY": 0.00098989, "INCLINATION": 97.1433, "RA_OF_ASC_NODE": 342.2378, "ARG_OF_PERICENTER": 342.1433, "MEAN_ANOMALY": 17.946, "EPHEMERIS_TYPE": 0, "CLASSIFICATION_TYPE": "U", "NORAD_CAT_ID": 41603, "ELEMENT_SET_NO": 999, "REV_AT_EPOCH": 52593, "BSTAR": 0.00019471833, "MEAN_MOTION_DOT": 5.861e-05, "MEAN_MOTION_DDOT": 0}, "tle": {"line1": "1 41603U 16040E   25344.60404512  .00005861  00000+0  19472-3 0  9990", "line2": "2 41603  97.1433 342.2378 0009898 342.1433  17.9460 15.31523446525931"}}, "geometry": {"type": "Point", "coordinates": [156.7835829865136, -38.59306025406486]}}, {"type": "Feature", "properties": {"norad_id": 41604, "name": "BIROS", "group": "resource", "lat": 20.598228071260593, "lon": 13.59058386802178, "alt_km": 307.17417010424197, "timestamp": "2025-12-10T21:43:21.743899+00:00", "meta": {"OBJECT_NAME": "BIROS", "OBJECT_ID": "2016-040F", "EPOCH": "2025-12-10T01:58:59.670912", "MEAN_MOTION": 15.88522659, "ECCENTRICITY": 0.00031678, "INCLINATION": 97.0703, "RA_OF_ASC_NODE": 15.4098, "ARG_OF_PERICENTER": 156.5515, "MEAN_ANOMALY": 203.5903, "EPHEMERIS_TYPE": 0, "CLASSIFICATION_TYPE": "U", "NORAD_CAT_ID": 41604, "ELEMENT_SET_NO": 999, "REV_AT_EPOCH": 52830, "BSTAR": 0.00072041907, "MEAN_MOTION_DOT": 0.00203476, "MEAN_MOTION_DDOT": 0}, "tle": {"line1": "1 41604U 16040F   25344.08263508  .00203476  00000+0  72042-3 0  9995", "line2": "2 41604  97.0703  15.4098 0003167 156.5515 203.5903 15.88522659528306"}}, "geometry": {"type": "Point", "coordinates": [13.59058386802178, 20.598228071260593]}}, {"type": "Feature", "properties": {"norad_id": 41727, "name": "GAOFEN-3", "group": "resource", "lat": -44.63067044965821, "lon": 162.12721407393113, "alt_km": 758.8978635229741, "timestamp": "2025-12-10T21:43:21.743909+00:00", "meta": {"OBJECT_NAME": "GAOFEN-3", "OBJECT_ID": "2016-049A", "EPOCH": "2025-12-10T14:01:17.890176", "MEAN_MOTION": 14.42212033, "ECCENTRICITY": 0.00014824, "INCLINATION": 98.404, "RA_OF_ASC_NODE": 350.203, "ARG_OF_PERICENTER": 63.5329, "MEAN_ANOMALY": 296.6012, "EPHEMERIS_TYPE": 0, "CLASSIFICATION_TYPE": "U", "NORAD_CAT_ID": 41727, "ELEMENT_SET_NO": 999, "REV_AT_EPOCH": 49146, "BSTAR": 7.9352e-08, "MEAN_MOTION_DOT": -4.3e-07, "MEAN_MOTION_DDOT": 0}, "tle": {"line1": "1 41727U 16049A   25344.58423484 -.00000043  00000+0  79352-7 0  9997", "line2": "2 41727  98.4040 350.2030 0001482  63.5329 296.6012 14.42212033491466"}}, "geometry": {"type": "Point", "coordinates": [162.12721407393113, -44.63067044965821]}}, {"type": "Feature", "properties": {"norad_id": 41771, "name": "SKYSAT-C4", "group": "resource", "lat": -59.257117297016244, "lon": 21.995237245506384, "alt_km": 447.7637880862667, "timestamp": "2025-12-10T21:43:21.743919+00:00", "meta": {"OBJECT_NAME": "SKYSAT-C4", "OBJECT_ID": "2016-058B", "EPOCH": "2025-12-10T12:38:19.390848", "MEAN_MOTION": 15.42146745, "ECCENTRICITY": 0.00012807, "INCLINATION": 96.9377, "RA_OF_ASC_NODE": 9.8214, "ARG_OF_PERICENTER": 134.2764, "MEAN_ANOMALY": 225.859, "EPHEMERIS_TYPE": 0, "CLASSIFICATION_TYPE": "U", "NORAD_CAT_ID": 41771, "ELEMENT_SET_NO": 999, "REV_AT_EPOCH": 51633, "BSTAR": 0.0004975141, "MEAN_MOTION_DOT": 0.00021261, "MEAN_MOTION_DDOT": 0}, "tle": {"line1": "1 41771U 16058B   25344.52661332  .00021261  00000+0  49751-3 0  9996", "line2": "2 41771  96.9377   9.8214 0001280 134.2764 225.8590 15.42146745516333"}}, "geometry": {"type": "Point", "coordinates": [21.995237245506384, -59.257117297016244]}}, {"type": "Feature", "properties": {"norad_id": 41772, "name": "SKYSAT-C5", "group": "resource", "lat": -78.57944077713344, "lon": 170.78343399144651, "alt_km": 468.2608598805982, "timestamp": "2025-12-10T21:43:21.743929+00:00", "meta": {"OBJECT_NAME": "SKYSAT-C5", "OBJECT_ID": "2016-058C", "EPOCH": "2025-12-10T09:38:23.192448", "MEAN_MOTION": 15.35296249, "ECCENTRICITY": 0.00023985, "INCLINATION": 97.076, "RA_OF_ASC_NODE": 28.246, "ARG_OF_PERICENTER": 139.5793, "MEAN_ANOMALY": 220.5629, "EPHEMERIS_TYPE": 0, "CLASSIFICATION_TYPE": "U", "NORAD_CAT_ID": 41772, "ELEMENT_SET_NO": 999, "REV_AT_EPOCH": 51480, "BSTAR": 0.00044652999, "MEAN_MOTION_DOT": 0.00015242, "MEAN_MOTION_DDOT": 0}, "tle": {"line1": "1 41772U 16058C   25344.40165732  .00015242  00000+0  44653-3 0  9995", "line2": "2 41772  97.0760  28.2460 0002398 139.5793 220.5629 15.35296249514803"}}, "geometry": {"type": "Point", "coordinates": [170.78343399144651, -78.57944077713344]}}, {"type": "Feature", "properties": {"norad_id": 41773, "name": "SKYSAT-C2", "group": "resource", "lat": -75.73479993907736, "lon": 160.44391671064488, "alt_km": 464.12580700224225, "timestamp": "2025-12-10T21:43:21.743939+00:00", "meta": {"OBJECT_NAME": "SKYSAT-C2", "OBJECT_ID": "2016-058D", "EPOCH": "2025-12-10T08:06:25.640064", "MEAN_MOTION": 15.37180734, "ECCENTRICITY": 0.0004477, "INCLINATION": 97.0364, "RA_OF_ASC_NODE": 8.9661, "ARG_OF_PERICENTER": 40.507, "MEAN_ANOMALY": 319.6508, "EPHEMERIS_TYPE": 0, "CLASSIFICATION_TYPE": "U", "NORAD_CAT_ID": 41773, "ELEMENT_SET_NO": 999, "REV_AT_EPOCH": 51599, "BSTAR": 0.0004509, "MEAN_MOTION_DOT": 0.00016358, "MEAN_MOTION_DDOT": 0}, "tle": {"line1": "1 41773U 16058D   25344.33779676  .00016358  00000+0  45090-3 0  9991", "line2": "2 41773  97.0364   8.9661 0004477  40.5070 319.6508 15.37180734515991"}}, "geometry": {"type": "Point", "coordinates": [160.44391671064488, -75.73479993907736]}}]}